ONEWEB-0340             
1 49206U 21083W   25194.49728525 -.00000070  00000+0 -21066-3 0  9994
2 49206  87.9123  42.7417 0001761  86.7308 273.4025 13.18684178185335
ONEWEB-0341             
1 49207U 21083X   25194.57977277  .00000037  00000+0  62183-4 0  9991
2 49207  87.9127  42.7356 0001763  67.6089 292.5230 13.18685288185364
ONEWEB-0342             
1 49208U 21083Y   25194.64225482  .00000075  00000+0  15205-3 0  9998
2 49208  87.9268 341.8773 0002002  95.1892 264.9470 13.20770368192096
ONEWEB-0343             
1 49209U 21083Z   25194.57566737 -.00000014  00000+0 -68643-4 0  9992
2 49209  87.9127  42.7232 0002089  68.3724 291.7630 13.18686658185418
ONEWEB-0344             
1 49210U 21083AA  25194.51043822  .00000127  00000+0  31287-3 0  9999
2 49210  87.8956  27.5681 0001650  74.3131 285.8180 13.13471170186433
ONEWEB-0345             
1 49211U 21083AB  25194.50197329 -.00000117  00000+0 -35411-3 0  9995
2 49211  87.8953  27.5220 0001588  72.9324 287.1979 13.13471214186449
ONEWEB-0346             
1 49212U 21083AC  25194.81233863  .00000109  00000+0  24399-3 0  9996
2 49212  87.9128  42.6982 0001382 102.2436 257.8851 13.18685731186675
ONEWEB-0348             
1 49213U 21083AD  25194.40553236  .00000809  00000+0  19571-2 0  9993
2 49213  87.9277 341.9337 0001298  92.0742 268.0540 13.20769513192098
